[{"OBJECT_NAME":"STARLINK-31165","OBJECT_ID":"2024-005W","EPOCH":"2026-03-09T22:00:01.999584","MEAN_MOTION":15.26316068,"ECCENTRICITY":8.676e-5,"INCLINATION":43,"RA_OF_ASC_NODE":218.5918,"ARG_OF_PERICENTER":265.3986,"MEAN_ANOMALY":214.815,"EPHEMERIS_TYPE":0,"CLASSIFICATION_TYPE":"U","NORAD_CAT_ID":58748,"ELEMENT_SET_NO":999,"REV_AT_EPOCH":578,"BSTAR":0.064543253,"MEAN_MOTION_DOT":0.0188386,"MEAN_MOTION_DDOT":0},{"OBJECT_NAME":"COSMOS 2576","OBJECT_ID":"2024-092A","EPOCH":"2026-03-09T19:49:29.705664","MEAN_MOTION":15.27760963,"ECCENTRICITY":0.0005946,"INCLINATION":97.4253,"RA_OF_ASC_NODE":186.0053,"ARG_OF_PERICENTER":159.7731,"MEAN_ANOMALY":200.3745,"EPHEMERIS_TYPE":0,"CLASSIFICATION_TYPE":"U","NORAD_CAT_ID":59773,"ELEMENT_SET_NO":999,"REV_AT_EPOCH":10127,"BSTAR":0.00056283,"MEAN_MOTION_DOT":0.00015211,"MEAN_MOTION_DDOT":0}]
